[{"OBJECT_NAME":"SKYSAT-A","OBJECT_ID":"2013-066C","EPOCH":"2026-04-05T02:23:17.797056","MEAN_MOTION":15.1255721,"ECCENTRICITY":0.00211022,"INCLINATION":97.3891,"RA_OF_ASC_NODE":146.8178,"ARG_OF_PERICENTER":203.2114,"MEAN_ANOMALY":156.8166,"EPHEMERIS_TYPE":0,"CLASSIFICATION_TYPE":"U","NORAD_CAT_ID":39418,"ELEMENT_SET_NO":999,"REV_AT_EPOCH":67743,"BSTAR":0.0002825028,"MEAN_MOTION_DOT":4.888e-5,"MEAN_MOTION_DDOT":0},{"OBJECT_NAME":"SKYSAT-B","OBJECT_ID":"2014-037D","EPOCH":"2026-04-04T19:47:21.089760","MEAN_MOTION":14.87832954,"ECCENTRICITY":0.00062521,"INCLINATION":98.3773,"RA_OF_ASC_NODE":49.65,"ARG_OF_PERICENTER":144.5417,"MEAN_ANOMALY":215.6214,"EPHEMERIS_TYPE":0,"CLASSIFICATION_TYPE":"U","NORAD_CAT_ID":40072,"ELEMENT_SET_NO":999,"REV_AT_EPOCH":63505,"BSTAR":0.00033657653,"MEAN_MOTION_DOT":3.016e-5,"MEAN_MOTION_DDOT":0},{"OBJECT_NAME":"SKYSAT-C1","OBJECT_ID":"2016-040C","EPOCH":"2026-04-05T02:32:52.077984","MEAN_MOTION":15.35097548,"ECCENTRICITY":6.17e-5,"INCLINATION":96.9645,"RA_OF_ASC_NODE":130.8214,"ARG_OF_PERICENTER":328.133,"MEAN_ANOMALY":31.9877,"EPHEMERIS_TYPE":0,"CLASSIFICATION_TYPE":"U","NORAD_CAT_ID":41601,"ELEMENT_SET_NO":999,"REV_AT_EPOCH":54665,"BSTAR":0.00036296835,"MEAN_MOTION_DOT":0.00012294,"MEAN_MOTION_DDOT":0},{"OBJECT_NAME":"SKYSAT-C4","OBJECT_ID":"2016-058B","EPOCH":"2026-04-05T07:48:00.211680","MEAN_MOTION":15.46395518,"ECCENTRICITY":0.00029912,"INCLINATION":96.9245,"RA_OF_ASC_NODE":120.2401,"ARG_OF_PERICENTER":124.4473,"MEAN_ANOMALY":235.7061,"EPHEMERIS_TYPE":0,"CLASSIFICATION_TYPE":"U","NORAD_CAT_ID":41771,"ELEMENT_SET_NO":999,"REV_AT_EPOCH":53420,"BSTAR":0.00040170021,"MEAN_MOTION_DOT":0.00019804,"MEAN_MOTION_DDOT":0},{"OBJECT_NAME":"SKYSAT-C5","OBJECT_ID":"2016-058C","EPOCH":"2026-04-05T02:40:23.345184","MEAN_MOTION":15.34246275,"ECCENTRICITY":0.00022515,"INCLINATION":97.0553,"RA_OF_ASC_NODE":139.0242,"ARG_OF_PERICENTER":171.0087,"MEAN_ANOMALY":189.1198,"EPHEMERIS_TYPE":0,"CLASSIFICATION_TYPE":"U","NORAD_CAT_ID":41772,"ELEMENT_SET_NO":999,"REV_AT_EPOCH":53254,"BSTAR":0.00032094626,"MEAN_MOTION_DOT":0.00010569,"MEAN_MOTION_DDOT":0},{"OBJECT_NAME":"SKYSAT-C2","OBJECT_ID":"2016-058D","EPOCH":"2026-04-05T00:33:27.935136","MEAN_MOTION":15.40462906,"ECCENTRICITY":0.00020676,"INCLINATION":97.024,"RA_OF_ASC_NODE":119.9348,"ARG_OF_PERICENTER":354.8974,"MEAN_ANOMALY":5.2252,"EPHEMERIS_TYPE":0,"CLASSIFICATION_TYPE":"U","NORAD_CAT_ID":41773,"ELEMENT_SET_NO":999,"REV_AT_EPOCH":53378,"BSTAR":0.00038873215,"MEAN_MOTION_DOT":0.00015682,"MEAN_MOTION_DDOT":0},{"OBJECT_NAME":"SKYSAT-C3","OBJECT_ID":"2016-058E","EPOCH":"2026-04-04T15:47:47.589216","MEAN_MOTION":15.49588124,"ECCENTRICITY":0.0002447,"INCLINATION":96.9122,"RA_OF_ASC_NODE":128.4431,"ARG_OF_PERICENTER":110.4361,"MEAN_ANOMALY":249.7155,"EPHEMERIS_TYPE":0,"CLASSIFICATION_TYPE":"U","NORAD_CAT_ID":41774,"ELEMENT_SET_NO":999,"REV_AT_EPOCH":53471,"BSTAR":0.00048397,"MEAN_MOTION_DOT":0.00026698,"MEAN_MOTION_DDOT":0},{"OBJECT_NAME":"SKYSAT-C11","OBJECT_ID":"2017-068A","EPOCH":"2026-04-05T03:07:08.136192","MEAN_MOTION":15.54203828,"ECCENTRICITY":5.427e-5,"INCLINATION":97.4258,"RA_OF_ASC_NODE":241.0351,"ARG_OF_PERICENTER":167.5091,"MEAN_ANOMALY":192.6176,"EPHEMERIS_TYPE":0,"CLASSIFICATION_TYPE":"U","NORAD_CAT_ID":42987,"ELEMENT_SET_NO":999,"REV_AT_EPOCH":47188,"BSTAR":0.00057485198,"MEAN_MOTION_DOT":0.00037456,"MEAN_MOTION_DDOT":0},{"OBJECT_NAME":"SKYSAT-C10","OBJECT_ID":"2017-068B","EPOCH":"2026-04-05T07:09:26.047296","MEAN_MOTION":15.33360883,"ECCENTRICITY":0.00010513,"INCLINATION":97.4392,"RA_OF_ASC_NODE":231.5554,"ARG_OF_PERICENTER":110.946,"MEAN_ANOMALY":249.1895,"EPHEMERIS_TYPE":0,"CLASSIFICATION_TYPE":"U","NORAD_CAT_ID":42988,"ELEMENT_SET_NO":999,"REV_AT_EPOCH":47118,"BSTAR":0.00044181019,"MEAN_MOTION_DOT":0.00014175,"MEAN_MOTION_DDOT":0},{"OBJECT_NAME":"SKYSAT-C9","OBJECT_ID":"2017-068C","EPOCH":"2026-04-05T07:12:43.566336","MEAN_MOTION":15.39800385,"ECCENTRICITY":0.00093234,"INCLINATION":97.4315,"RA_OF_ASC_NODE":231.8243,"ARG_OF_PERICENTER":46.3877,"MEAN_ANOMALY":313.8141,"EPHEMERIS_TYPE":0,"CLASSIFICATION_TYPE":"U","NORAD_CAT_ID":42989,"ELEMENT_SET_NO":999,"REV_AT_EPOCH":47153,"BSTAR":0.00047001979,"MEAN_MOTION_DOT":0.00018594,"MEAN_MOTION_DDOT":0},{"OBJECT_NAME":"SKYSAT-C8","OBJECT_ID":"2017-068D","EPOCH":"2026-04-05T07:27:50.666976","MEAN_MOTION":15.35526122,"ECCENTRICITY":0.00010481,"INCLINATION":97.441,"RA_OF_ASC_NODE":231.0999,"ARG_OF_PERICENTER":94.9798,"MEAN_ANOMALY":265.1565,"EPHEMERIS_TYPE":0,"CLASSIFICATION_TYPE":"U","NORAD_CAT_ID":42990,"ELEMENT_SET_NO":999,"REV_AT_EPOCH":47112,"BSTAR":0.00045701998,"MEAN_MOTION_DOT":0.00015712,"MEAN_MOTION_DDOT":0},{"OBJECT_NAME":"SKYSAT-C7","OBJECT_ID":"2017-068E","EPOCH":"2026-04-05T07:14:45.998592","MEAN_MOTION":15.35475037,"ECCENTRICITY":0.00061833,"INCLINATION":97.4421,"RA_OF_ASC_NODE":232.0754,"ARG_OF_PERICENTER":20.512,"MEAN_ANOMALY":339.6371,"EPHEMERIS_TYPE":0,"CLASSIFICATION_TYPE":"U","NORAD_CAT_ID":42991,"ELEMENT_SET_NO":999,"REV_AT_EPOCH":47118,"BSTAR":0.00044483722,"MEAN_MOTION_DOT":0.00015274,"MEAN_MOTION_DDOT":0},{"OBJECT_NAME":"SKYSAT-C6","OBJECT_ID":"2017-068F","EPOCH":"2026-04-04T19:34:02.492832","MEAN_MOTION":15.33161354,"ECCENTRICITY":0.00034904,"INCLINATION":97.4454,"RA_OF_ASC_NODE":231.791,"ARG_OF_PERICENTER":64.1466,"MEAN_ANOMALY":296.0136,"EPHEMERIS_TYPE":0,"CLASSIFICATION_TYPE":"U","NORAD_CAT_ID":42992,"ELEMENT_SET_NO":999,"REV_AT_EPOCH":47107,"BSTAR":0.00042458218,"MEAN_MOTION_DOT":0.00013535,"MEAN_MOTION_DDOT":0},{"OBJECT_NAME":"SKYSAT-C12","OBJECT_ID":"2018-099AR","EPOCH":"2026-04-05T07:04:08.562720","MEAN_MOTION":15.46653399,"ECCENTRICITY":0.00058417,"INCLINATION":96.9334,"RA_OF_ASC_NODE":121.56,"ARG_OF_PERICENTER":73.9842,"MEAN_ANOMALY":286.2052,"EPHEMERIS_TYPE":0,"CLASSIFICATION_TYPE":"U","NORAD_CAT_ID":43797,"ELEMENT_SET_NO":999,"REV_AT_EPOCH":41058,"BSTAR":0.00044616808,"MEAN_MOTION_DOT":0.00022218,"MEAN_MOTION_DDOT":0},{"OBJECT_NAME":"SKYSAT-C13","OBJECT_ID":"2018-099AW","EPOCH":"2026-04-05T02:03:50.255712","MEAN_MOTION":15.82580583,"ECCENTRICITY":0.00054536,"INCLINATION":96.9314,"RA_OF_ASC_NODE":142.8697,"ARG_OF_PERICENTER":133.8758,"MEAN_ANOMALY":226.2963,"EPHEMERIS_TYPE":0,"CLASSIFICATION_TYPE":"U","NORAD_CAT_ID":43802,"ELEMENT_SET_NO":999,"REV_AT_EPOCH":41133,"BSTAR":0.00063184902,"MEAN_MOTION_DOT":0.00133248,"MEAN_MOTION_DDOT":0},{"OBJECT_NAME":"FLOCK 4Q-16","OBJECT_ID":"2023-174R","EPOCH":"2026-04-05T05:41:40.629984","MEAN_MOTION":15.46267146,"ECCENTRICITY":0.00071242,"INCLINATION":97.3837,"RA_OF_ASC_NODE":181.8329,"ARG_OF_PERICENTER":75.9792,"MEAN_ANOMALY":284.2249,"EPHEMERIS_TYPE":0,"CLASSIFICATION_TYPE":"U","NORAD_CAT_ID":58271,"ELEMENT_SET_NO":999,"REV_AT_EPOCH":13429,"BSTAR":0.00059737819,"MEAN_MOTION_DOT":0.00029413,"MEAN_MOTION_DDOT":0}]
