SKYSAT-A                
1 39418U 13066C   26095.09951154  .00004888  00000+0  28250-3 0  9994
2 39418  97.3891 146.8178 0021102 203.2114 156.8166 15.12557210677437
SKYSAT-B                
1 40072U 14037D   26094.82454965  .00003016  00000+0  33658-3 0  9999
2 40072  98.3773  49.6500 0006252 144.5417 215.6214 14.87832954635058
SKYSAT-C1               
1 41601U 16040C   26095.10615831  .00012294  00000+0  36297-3 0  9997
2 41601  96.9645 130.8214 0000617 328.1330  31.9877 15.35097548546654
SKYSAT-C4               
1 41771U 16058B   26095.32500245  .00019804  00000+0  40170-3 0  9999
2 41771  96.9245 120.2401 0002991 124.4473 235.7061 15.46395518534208
SKYSAT-C5               
1 41772U 16058C   26095.11138131  .00010569  00000+0  32095-3 0  9994
2 41772  97.0553 139.0242 0002251 171.0087 189.1198 15.34246275532542
SKYSAT-C2               
1 41773U 16058D   26095.02323999  .00015682  00000+0  38873-3 0  9994
2 41773  97.0240 119.9348 0002067 354.8974   5.2252 15.40462906533785
SKYSAT-C3               
1 41774U 16058E   26094.65818969  .00026698  00000+0  48397-3 0  9990
2 41774  96.9122 128.4431 0002447 110.4361 249.7155 15.49588124534710
SKYSAT-C11              
1 42987U 17068A   26095.12995528  .00037456  00000+0  57485-3 0  9991
2 42987  97.4258 241.0351 0000542 167.5091 192.6176 15.54203828471881
SKYSAT-C10              
1 42988U 17068B   26095.29821814  .00014175  00000+0  44181-3 0  9998
2 42988  97.4392 231.5554 0001051 110.9460 249.1895 15.33360883471189
SKYSAT-C9               
1 42989U 17068C   26095.30050424  .00018594  00000+0  47002-3 0  9996
2 42989  97.4315 231.8243 0009323  46.3877 313.8141 15.39800385471531
SKYSAT-C8               
1 42990U 17068D   26095.31100309  .00015712  00000+0  45702-3 0  9991
2 42990  97.4410 231.0999 0001048  94.9798 265.1565 15.35526122471120
SKYSAT-C7               
1 42991U 17068E   26095.30192128  .00015274  00000+0  44484-3 0  9990
2 42991  97.4421 232.0754 0006183  20.5120 339.6371 15.35475037471188
SKYSAT-C6               
1 42992U 17068F   26094.81530663  .00013535  00000+0  42458-3 0  9993
2 42992  97.4454 231.7910 0003490  64.1466 296.0136 15.33161354471075
SKYSAT-C12              
1 43797U 18099AR  26095.29454355  .00022218  00000+0  44617-3 0  9995
2 43797  96.9334 121.5600 0005841  73.9842 286.2052 15.46653399410586
SKYSAT-C13              
1 43802U 18099AW  26095.08599833  .00133248  00000+0  63185-3 0  9997
2 43802  96.9314 142.8697 0005453 133.8758 226.2963 15.82580583411337
FLOCK 4Q-16             
1 58271U 23174R   26095.23727581  .00029413  00000+0  59738-3 0  9990
2 58271  97.3837 181.8329 0007124  75.9792 284.2249 15.46267146134299
